SENTINEL-6              
1 46984U 20086A   24052.82041148 -.00000033  00000+0  12286-3 0  9996
2 46984  66.0401  92.9659 0007840 270.5585  89.4532 12.80930929151923
